
# Worst residual: 10.45 km
# MJD 58597.000000 (2019 Apr 24  0:00)
NORAD 30798 = 2007-004E = THEMIS E
1 30798U 07004E   19114.49919926  .00000000  00000-0  00000-0 0  4763
2 30798 006.3923 079.8044 8416137 319.6529 099.8627 00.81743587    03

# Worst residual: 10.24 km
# MJD 58598.000000 (2019 Apr 25  0:00)
NORAD 30798 = 2007-004E = THEMIS E
1 30798U 07004E   19115.49919926  .00000000  00000-0  00000-0 0  4764
2 30798 006.4008 079.6675 8416060 319.8857 034.1023 00.81762210    03

# Worst residual: 10.77 km
# MJD 58599.000000 (2019 Apr 26  0:00)
NORAD 30798 = 2007-004E = THEMIS E
1 30798U 07004E   19116.49919926  .00000000  00000-0  00000-0 0  4765
2 30798 006.4120 079.5021 8416730 320.1498 328.3207 00.81754414    01

# Worst residual: 12.54 km
# MJD 58600.000000 (2019 Apr 27  0:00)
NORAD 30798 = 2007-004E = THEMIS E
1 30798U 07004E   19117.49919926  .00000000  00000-0  00000-0 0  4766
2 30798 006.4214 079.3531 8417228 320.3971 262.5507 00.81740960    03

# Worst residual: 6.30 km
# MJD 58601.000000 (2019 Apr 28  0:00)
NORAD 30798 = 2007-004E = THEMIS E
1 30798U 07004E   19118.49919926  .00000000  00000-0  00000-0 0  4767
2 30798 006.4316 079.1838 8419236 320.6681 196.7792 00.81748645    08

# Worst residual: 11.21 km
# MJD 58602.000000 (2019 Apr 29  0:00)
NORAD 30798 = 2007-004E = THEMIS E
1 30798U 07004E   19119.49919926  .00000000  00000-0  00000-0 0  4768
2 30798 006.4433 079.0044 8417821 320.9501 131.0071 00.81738003    07

# Worst residual: 11.18 km
# MJD 58603.000000 (2019 Apr 30  0:00)
NORAD 30798 = 2007-004E = THEMIS E
1 30798U 07004E   19120.49919926  .00000000  00000-0  00000-0 0  4760
2 30798 006.4509 078.8586 8417893 321.1964 065.2381 00.81749980    02

# Worst residual: 10.54 km
# MJD 58604.000000 (2019 May  1  0:00)
NORAD 30798 = 2007-004E = THEMIS E
1 30798U 07004E   19121.49919926  .00000000  00000-0  00000-0 0  4761
2 30798 006.4639 078.6887 8417846 321.4667 359.4535 00.81760207    03

# Worst residual: 14.30 km
# MJD 58605.000000 (2019 May  2  0:00)
NORAD 30798 = 2007-004E = THEMIS E
1 30798U 07004E   19122.49919926  .00000000  00000-0  00000-0 0  4762
2 30798 006.4745 078.5273 8417649 321.7263 293.6830 00.81739630    08

# Worst residual: 15.88 km
# MJD 58606.000000 (2019 May  3  0:00)
NORAD 30798 = 2007-004E = THEMIS E
1 30798U 07004E   19123.49919926  .00000000  00000-0  00000-0 0  4763
2 30798 006.4823 078.3845 8418614 321.9744 227.9172 00.81744605    04

# Worst residual: 14.47 km
# MJD 58607.000000 (2019 May  4  0:00)
NORAD 30798 = 2007-004E = THEMIS E
1 30798U 07004E   19124.49919926  .00000000  00000-0  00000-0 0  4764
2 30798 006.4937 078.2194 8418477 322.2397 162.1491 00.81744084    06

# Worst residual: 12.86 km
# MJD 58608.000000 (2019 May  5  0:00)
NORAD 30798 = 2007-004E = THEMIS E
1 30798U 07004E   19125.49919926  .00000000  00000-0  00000-0 0  4765
2 30798 006.5020 078.0663 8417480 322.4993 096.3819 00.81740355    05

# Worst residual: 10.86 km
# MJD 58609.000000 (2019 May  6  0:00)
NORAD 30798 = 2007-004E = THEMIS E
1 30798U 07004E   19126.49919926  .00000000  00000-0  00000-0 0  4766
2 30798 006.5076 077.9484 8417809 322.7165 030.6161 00.81759091    02

# Worst residual: 12.70 km
# MJD 58610.000000 (2019 May  7  0:00)
NORAD 30798 = 2007-004E = THEMIS E
1 30798U 07004E   19127.49919926  .00000000  00000-0  00000-0 0  4767
2 30798 006.5166 077.8040 8418022 322.9632 324.8254 00.81750080    08

# Worst residual: 13.10 km
# MJD 58611.000000 (2019 May  8  0:00)
NORAD 30798 = 2007-004E = THEMIS E
1 30798U 07004E   19128.49919926  .00000000  00000-0  00000-0 0  4768
2 30798 006.5262 077.6474 8418076 323.2248 259.0441 00.81736388    02
